1 25418U 98046F   16018.46976973  .00000321  00000-0  16970-3 0  9996,2 25418  44.9983 164.4083 0003248  99.7370 310.2100 14.32165100911086
1 25418U 98046F   16018.90636400 +.00000301 +00000-0 +16255-3 0  9997,2 25418 044.9983 162.3579 0003248 102.4483 040.6624 14.32165398910959
1 25418U 98046F   16019.51386803  .00000346  00000-0  17906-3 0  9997,2 25418  44.9984 159.5045 0003243 106.5045 291.7970 14.32166162911235
1 25418U 98046F   16019.88250269 +.00000316 +00000-0 +16803-3 0  9995,2 25418 044.9985 157.7733 0003243 108.7714 031.9708 14.32166322911092
1 25418U 98046F   16020.85842650  .00000361  00000-0  18465-3 0  9991,2 25418  44.9985 153.1897 0003250 115.1243  22.1446 14.32167472911425
1 25418U 98046F   16021.83481442 +.00000378 +00000-0 +19084-3 0  9994,2 25418 044.9986 148.6038 0003268 121.4449 014.7521 14.32168710911370
1 25418U 98046F   16022.16989185  .00000363  00000-0  18529-3 0  9995,2 25418  44.9986 147.0301 0003272 123.6248 301.8348 14.32168991911617
1 25418U 98046F   16022.81131071 +.00000380 +00000-0 +19163-3 0  9994,2 25418 044.9986 144.0175 0003296 127.6395 008.0477 14.32169870911511
1 25418U 98046F   16023.43299411  .00000334  00000-0  17476-3 0  9990,2 25418  44.9987 141.0975 0003325 131.6611 332.4037 14.32170341911797
1 25418U 98046F   16024.46794720  .00000290  00000-0  15860-3 0  9993,2 25418  44.9988 136.2366 0003362 138.0194 267.2236 14.32171268911948
1 25418U 98046F   16024.83726481 +.00000291 +00000-0 +15862-3 0  9996,2 25418 044.9988 134.5021 0003381 140.1494 011.0663 14.32171685911802
1 25418U 98046F   16025.52659442  .00000291  00000-0  15863-3 0  9996,2 25418  44.9989 131.2644 0003416 144.4185 324.2874 14.32172416912099
1 25418U 98046F   16025.74582456 +.00000287 +00000-0 +15726-3 0  9993,2 25418 044.9989 130.2348 0003424 145.6242 014.4839 14.32172595911934
1 25418U 98046F   16025.74582456 +.00000287 +00000-0 +15726-3 0  9993,2 25418 044.9989 130.2348 0003424 145.6242 014.4839 14.32172595911934
1 25418U 98046F   16026.72218477  .00000279  00000-0  15448-3 0  9993,2 25418  44.9990 125.6491 0003470 151.5147   7.3931 14.32173471912269
1 25418U 98046F   16027.69817587 +.00000296 +00000-0 +16044-3 0  9999,2 25418 044.9991 121.0651 0003518 157.4747 358.3306 14.32174358912217
1 25418U 98046F   16028.23423198  .00000245  00000-0  14179-3 0  9992,2 25418  44.9992 118.5474 0003547 160.6104 241.6756 14.32174485912480
1 25418U 98046F   16028.67450409 +.00000279 +00000-0 +15426-3 0  9998,2 25418 044.9992 116.4796 0003569 163.0244 351.4206 14.32175020912352
1 25418U 98046F   16029.57711862  .00000270  00000-0  15086-3 0  9994,2 25418  44.9993 112.2403 0003626 168.1150 324.5504 14.32175667912672
1 25418U 98046F   16029.65104900 +.00000282 +00000-0 +15559-3 0  9990,2 25418 044.9993 111.8931 0003628 168.5091 345.6973 14.32175810912497
1 25418U 98046F   16030.62751105  .00000280  00000-0  15479-3 0  9993,2 25418  44.9993 107.3070 0003691 173.7187 339.8244 14.32176631912820
1 25418U 98046F   16031.67032293  .00000285  00000-0  15671-3 0  9998,2 25418  44.9993 102.4093 0003754 179.2163 316.0871 14.32177694912975
1 25418U 98046F   16032.65281071 +.00000334 +00000-0 +17474-3 0  9995,2 25418 044.9993 097.7948 0003818 184.3089 341.4373 14.32178983912921
1 25418U 98046F   16033.18489751  .00000280  00000-0  15474-3 0  9997,2 25418  44.9993  95.2956 0003855 187.1559 204.5949 14.32179186913191
1 25418U 98046F   16033.69631023 +.00000303 +00000-0 +16321-3 0  9992,2 25418 044.9993 092.8937 0003887 189.6370 321.4252 14.32179852913079
1 25418U 98046F   16034.53217918  .00000332  00000-0  17385-3 0  9992,2 25418  44.9993  88.9673 0003899 191.9099 313.0174 14.32214871913384
1 25418U 98046F   16034.60497265 +.00000309 +00000-0 +16543-3 0  9994,2 25418 044.9992 088.6253 0003902 192.2963 328.3142 14.32214668913202
1 25418U 98046F   16035.58091441  .00000293  00000-0  15928-3 0  9996,2 25418  44.9993  84.0413 0003976 196.8922 320.5058 14.32215400913538
1 25418U 98046F   16036.62426322  .00000335  00000-0  17495-3 0  9990,2 25418  44.9994  79.1405 0004040 202.0791 299.9952 14.32216544913680
1 25418U 98046F   16037.60049619 +.00000353 +00000-0 +18144-3 0  9991,2 25418 044.9994 074.5550 0004098 206.6679 293.7040 14.32217533913632
1 25418U 98046F   16038.13914292  .00000344  00000-0  17797-3 0  9991,2 25418  44.9994  72.0248 0004131 209.2535 191.0535 14.32217980913902
1 25418U 98046F   16038.57636829 +.00000398 +00000-0 +19801-3 0  9993,2 25418 044.9994 069.9712 0004149 211.2432 285.5681 14.32218702913770
1 25418U 98046F   16039.48652376  .00000493  00000-0  23275-3 0  9995,2 25418  44.9995  65.6961 0004194 215.4509 298.6446 14.32220284914099
1 25418U 98046F   16039.55258394 +.00000485 +00000-0 +22998-3 0  9997,2 25418 044.9995 065.3858 0004197 215.7359 279.2942 14.32220328913915
1 25418U 98046F   16040.53557968  .00000455  00000-0  21886-3 0  9998,2 25418  44.9995  60.7686 0004239 220.2392 308.0046 14.32221373914242
1 25418U 98046F   16041.50603675 +.00000476 +00000-0 +22680-3 0  9999,2 25418 044.9996 056.2102 0004277 224.5975 272.1536 14.32222800914197
1 25418U 98046F   16042.18571328  .00000378  00000-0  19050-3 0  9991,2 25418  44.9996  53.0176 0004309 227.6364 176.9115 14.32223140914489
1 25418U 98046F   16042.41724907 +.00000447 +00000-0 +21601-3 0  9992,2 25418 044.9996 051.9301 0004316 228.6175 290.8833 14.32223844914322
1 25418U 98046F   16043.46356007  .00000484  00000-0  22962-3 0  9992,2 25418  44.9997  47.0153 0004347 233.2476 286.2505 14.32225462914664
1 25418U 98046F   16044.43963249 +.00000469 +00000-0 +22399-3 0  9999,2 25418 044.9998 042.4305 0004380 237.4529 279.5460 14.32226615914616
1 25418U 98046F   16045.13094255  .00000531  00000-0  24674-3 0  9997,2 25418  44.9998  39.1832 0004403 240.4277 244.4194 14.32227842914904
1 25418U 98046F   16045.94800895 +.00000535 +00000-0 +24828-3 0  9996,2 25418 044.9999 035.3452 0004426 243.8837 137.8419 14.32228855914837
1 25418U 98046F   16046.17292943  .00000534  00000-0  24775-3 0  9991,2 25418  44.9999  34.2887 0004425 244.8244 217.7163 14.32229153915050
1 25418U 98046F   16046.92523787 +.00000480 +00000-0 +22809-3 0  9993,2 25418 045.0000 030.7549 0004435 248.0439 137.1631 14.32229796914972
1 25418U 98046F   16047.22276571  .00000477  00000-0  22677-3 0  9992,2 25418  45.0000  29.3574 0004435 249.2430 231.5074 14.32230205915202
1 25418U 98046F   16047.97222796 +.00000662 +00000-0 +29507-3 0  9999,2 25418 045.0001 025.8369 0004435 252.4517 136.2837 14.32232399915123
1 25418U 98046F   16048.34403297  .00000660  00000-0  29425-3 0  9995,2 25418  45.0001  24.0906 0004435 253.9350 253.6916 14.32232974915369
1 25418U 98046F   16048.89118755 +.00000537 +00000-0 +24905-3 0  9998,2 25418 045.0002 021.5205 0004441 256.2226 195.2765 14.32233090915250
1 25418U 98046F   16049.39430039  .00000623  00000-0  28078-3 0  9997,2 25418  45.0003  19.1574 0004434 258.2937 269.7814 14.32234403915516
1 25418U 98046F   16049.86740365 +.00000566 +00000-0 +25963-3 0  9991,2 25418 045.0003 016.9351 0004437 260.1988 189.5714 14.32234766915391
1 25418U 98046F   16050.84360207  .00000431  00000-0  20991-3 0  9991,2 25418  45.0004  12.3499 0004429 264.1313 183.8214 14.32235426915725
1 25418U 98046F   16050.91682257 +.00000430 +00000-0 +20950-3 0  9995,2 25418 045.0004 012.0059 0004426 264.4363 201.4096 14.32235552915544
1 25418U 98046F   16051.87838666  .00000382  00000-0  19200-3 0  9990,2 25418  45.0005   7.4894 0004423 268.2566 120.2478 14.32236559915870
1 25418U 98046F   16051.95171216 +.00000344 +00000-0 +17817-3 0  9990,2 25418 045.0005 007.1450 0004412 268.5964 138.3434 14.32236483915696
1 25418U 98046F   16052.92800601 +.00000326 +00000-0 +17133-3 0  9996,2 25418 045.0005 002.5593 0004392 272.5987 133.0244 14.32237549915831
1 25418U 98046F   16053.01274624  .00000324  00000-0  17051-3 0  9994,2 25418  45.0005   2.1613 0004386 272.9571 210.0131 14.32237639916030
1 25418U 98046F   16053.91638683 +.00000315 +00000-0 +16742-3 0  9998,2 25418 045.0005 357.9168 0004366 276.6562 190.0339 14.32238499915979
1 25418U 98046F   16054.20088390  .00000310  00000-0  16546-3 0  9992,2 25418  45.0005 356.5805 0004349 277.8375 217.1521 14.32238730916207
1 25418U 98046F   16054.82119897 +.00000331 +00000-0 +17339-3 0  9991,2 25418 045.0005 353.6668 0004336 280.3807 176.0774 14.32239343916100
1 25418U 98046F   16055.31786024  .00000347  00000-0  17904-3 0  9993,2 25418  45.0004 351.3339 0004305 282.3914 217.3557 14.32239896916365
1 25418U 98046F   16055.86875152 +.00000329 +00000-0 +17264-3 0  9993,2 25418 045.0004 348.7463 0004296 284.5394 178.3800 14.32240275916256
1 25418U 98046F   16055.86875152 +.00000329 +00000-0 +17264-3 0  9993,2 25418 045.0004 348.7463 0004296 284.5394 178.3800 14.32240275916256
1 25418U 98046F   16056.70066609  .00000341  00000-0  17691-3 0  9994,2 25418  45.0005 344.8384 0004277 287.1070 149.3911 14.32251106916565
1 25418U 98046F   16056.84494841 +.00000286 +00000-0 +15659-3 0  9992,2 25418 045.0004 344.1606 0004272 287.6911 173.4598 14.32251007916398
1 25418U 98046F   16057.80868123  .00000285  00000-0  15619-3 0  9992,2 25418  45.0004 339.6338 0004232 292.1518 102.9038 14.32251978916729
1 25418U 98046F   16057.89202640 +.00000267 +00000-0 +14958-3 0  9992,2 25418 045.0005 339.2424 0004223 292.6293 172.5782 14.32252034916540
1 25418U 98046F   16058.85770442  .00000278  00000-0  15377-3 0  9997,2 25418  45.0004 334.7065 0004183 296.3986 112.7563 14.32252964916876
1 25418U 98046F   16058.92655137 +.00000243 +00000-0 +14091-3 0  9992,2 25418 045.0004 334.3832 0004178 296.7682 107.7118 14.32252848916696
1 25418U 98046F   16059.83417064 +.00000271 +00000-0 +15133-3 0  9997,2 25418 045.0004 330.1200 0004120 300.3454 108.4384 14.32253766916823
1 25418U 98046F   16060.20466512  .00000224  00000-0  13395-3 0  9998,2 25418  45.0003 328.3798 0004089 301.9422 218.9974 14.32253851917063
1 25418U 98046F   16060.89503181 +.00000229 +00000-0 +13573-3 0  9990,2 25418 045.0003 325.1370 0004052 304.7332 179.2532 14.32254479916970
